UKR0009 28.43  0.15 K171K 306.77024   97.57756  124.80541    5.15695  0.4202320  0.81787028   1.1324345    FO 170526     4   1 55.3 min  0.26         Find_Orb   0000 UKR0009                     20170120
